{"type": "FeatureCollection", "features": [ {"type": "Feature", "properties": {"norad_id": 35885, "name": "COSMOS 2251 DEB", "group": "cosmos-2251-debris", "lat": -69.94030323749394, "lon": 169.90018264261693, "alt_km": 782.2299614068543, "timestamp": "2025-12-10T20:49:52.949475+00:00", "meta": {"OBJECT_NAME": "COSMOS 2251 DEB", "OBJECT_ID": "1993-036ATY", "EPOCH": "2025-12-10T14:37:30.243648", "MEAN_MOTION": 14.37513931, "ECCENTRICITY": 0.00230757, "INCLINATION": 74.0281, "RA_OF_ASC_NODE": 298.717, "ARG_OF_PERICENTER": 19.6981, "MEAN_ANOMALY": 340.5059, "EPHEMERIS_TYPE": 0, "CLASSIFICATION_TYPE": "U", "NORAD_CAT_ID": 35885, "ELEMENT_SET_NO": 999, "REV_AT_EPOCH": 64985, "BSTAR": 0.00053652197, "MEAN_MOTION_DOT": 1.586e-05, "MEAN_MOTION_DDOT": 0}, "tle": {"line1": "1 35885U 93036ATY 25344.60937782  .00001586  00000+0  53652-3 0  9993", "line2": "2 35885  74.0281 298.7170 0023075  19.6981 340.5059 14.37513931649853"}}, "geometry": {"type": "Point", "coordinates": [169.90018264261693, -69.94030323749394]}}, {"type": "Feature", "properties": {"norad_id": 35888, "name": "COSMOS 2251 DEB", "group": "cosmos-2251-debris", "lat": 65.60314993465275, "lon": 39.37180638077972, "alt_km": 675.5180163016284, "timestamp": "2025-12-10T20:49:52.949485+00:00", "meta": {"OBJECT_NAME": "COSMOS 2251 DEB", "OBJECT_ID": "1993-036AUB", "EPOCH": "2025-12-10T07:20:01.808736", "MEAN_MOTION": 14.58304904, "ECCENTRICITY": 0.0048302, "INCLINATION": 74.0337, "RA_OF_ASC_NODE": 1.3007, "ARG_OF_PERICENTER": 134.1871, "MEAN_ANOMALY": 226.3279, "EPHEMERIS_TYPE": 0, "CLASSIFICATION_TYPE": "U", "NORAD_CAT_ID": 35888, "ELEMENT_SET_NO": 999, "REV_AT_EPOCH": 86238, "BSTAR": 0.00054866, "MEAN_MOTION_DOT": 2.549e-05, "MEAN_MOTION_DDOT": 0}, "tle": {"line1": "1 35888U 93036AUB 25344.30557649  .00002549  00000+0  54866-3 0  9991", "line2": "2 35888  74.0337   1.3007 0048302 134.1871 226.3279 14.58304904862387"}}, "geometry": {"type": "Point", "coordinates": [39.37180638077972, 65.60314993465275]}}, {"type": "Feature", "properties": {"norad_id": 35890, "name": "COSMOS 2251 DEB", "group": "cosmos-2251-debris", "lat": 56.05542463794046, "lon": 40.9376916580788, "alt_km": 708.161051934344, "timestamp": "2025-12-10T20:49:52.949495+00:00", "meta": {"OBJECT_NAME": "COSMOS 2251 DEB", "OBJECT_ID": "1993-036AUD", "EPOCH": "2025-12-08T00:44:22.816032", "MEAN_MOTION": 14.57358592, "ECCENTRICITY": 0.00535586, "INCLINATION": 73.9367, "RA_OF_ASC_NODE": 251.7044, "ARG_OF_PERICENTER": 16.9796, "MEAN_ANOMALY": 343.3143, "EPHEMERIS_TYPE": 0, "CLASSIFICATION_TYPE": "U", "NORAD_CAT_ID": 35890, "ELEMENT_SET_NO": 999, "REV_AT_EPOCH": 65082, "BSTAR": 0.0025122755, "MEAN_MOTION_DOT": 0.00011598, "MEAN_MOTION_DDOT": 0}, "tle": {"line1": "1 35890U 93036AUD 25342.03081963  .00011598  00000+0  25123-2 0  9990", "line2": "2 35890  73.9367 251.7044 0053558  16.9796 343.3143 14.57358592650820"}}, "geometry": {"type": "Point", "coordinates": [40.9376916580788, 56.05542463794046]}}, {"type": "Feature", "properties": {"norad_id": 35891, "name": "COSMOS 2251 DEB", "group": "cosmos-2251-debris", "lat": -43.67719881791457, "lon": -66.19603956026711, "alt_km": 442.83757581316604, "timestamp": "2025-12-10T20:49:52.949505+00:00", "meta": {"OBJECT_NAME": "COSMOS 2251 DEB", "OBJECT_ID": "1993-036AUE", "EPOCH": "2025-12-10T15:08:56.489568", "MEAN_MOTION": 15.33032056, "ECCENTRICITY": 0.00441726, "INCLINATION": 73.9885, "RA_OF_ASC_NODE": 98.397, "ARG_OF_PERICENTER": 228.9907, "MEAN_ANOMALY": 130.7474, "EPHEMERIS_TYPE": 0, "CLASSIFICATION_TYPE": "U", "NORAD_CAT_ID": 35891, "ELEMENT_SET_NO": 999, "REV_AT_EPOCH": 67188, "BSTAR": 0.0020263415, "MEAN_MOTION_DOT": 0.00067253, "MEAN_MOTION_DDOT": 0}, "tle": {"line1": "1 35891U 93036AUE 25344.63120937  .00067253  00000+0  20263-2 0  9993", "line2": "2 35891  73.9885  98.3970 0044172 228.9907 130.7474 15.33032056671883"}}, "geometry": {"type": "Point", "coordinates": [-66.19603956026711, -43.67719881791457]}}, {"type": "Feature", "properties": {"norad_id": 35895, "name": "COSMOS 2251 DEB", "group": "cosmos-2251-debris", "lat": -13.169847526470628, "lon": -12.925673551854638, "alt_km": 923.0866567594549, "timestamp": "2025-12-10T20:49:52.949515+00:00", "meta": {"OBJECT_NAME": "COSMOS 2251 DEB", "OBJECT_ID": "1993-036AUJ", "EPOCH": "2025-12-10T07:11:31.170912", "MEAN_MOTION": 14.01506304, "ECCENTRICITY": 0.0198752, "INCLINATION": 74.05, "RA_OF_ASC_NODE": 351.8966, "ARG_OF_PERICENTER": 90.7812, "MEAN_ANOMALY": 271.61, "EPHEMERIS_TYPE": 0, "CLASSIFICATION_TYPE": "U", "NORAD_CAT_ID": 35895, "ELEMENT_SET_NO": 999, "REV_AT_EPOCH": 58978, "BSTAR": 0.001851, "MEAN_MOTION_DOT": 3.303e-05, "MEAN_MOTION_DDOT": 0}, "tle": {"line1": "1 35895U 93036AUJ 25344.29966633  .00003303  00000+0  18510-2 0  9998", "line2": "2 35895  74.0500 351.8966 0198752  90.7812 271.6100 14.01506304589783"}}, "geometry": {"type": "Point", "coordinates": [-12.925673551854638, -13.169847526470628]}}, {"type": "Feature", "properties": {"norad_id": 35898, "name": "COSMOS 2251 DEB", "group": "cosmos-2251-debris", "lat": -51.49512441731449, "lon": -79.91438594098024, "alt_km": 631.9378538362871, "timestamp": "2025-12-10T20:49:52.949525+00:00", "meta": {"OBJECT_NAME": "COSMOS 2251 DEB", "OBJECT_ID": "1993-036AUM", "EPOCH": "2025-12-09T15:20:01.417920", "MEAN_MOTION": 14.94623361, "ECCENTRICITY": 0.0079232, "INCLINATION": 73.9921, "RA_OF_ASC_NODE": 303.7215, "ARG_OF_PERICENTER": 88.0623, "MEAN_ANOMALY": 87.6524, "EPHEMERIS_TYPE": 0, "CLASSIFICATION_TYPE": "U", "NORAD_CAT_ID": 35898, "ELEMENT_SET_NO": 999, "REV_AT_EPOCH": 66763, "BSTAR": 0.00095523, "MEAN_MOTION_DOT": 0.00010991, "MEAN_MOTION_DDOT": 0}, "tle": {"line1": "1 35898U 93036AUM 25343.63890530  .00010991  00000+0  95523-3 0  9991", "line2": "2 35898  73.9921 303.7215 0079232  88.0623  87.6524 14.94623361667636"}}, "geometry": {"type": "Point", "coordinates": [-79.91438594098024, -51.49512441731449]}}, {"type": "Feature", "properties": {"norad_id": 35901, "name": "COSMOS 2251 DEB", "group": "cosmos-2251-debris", "lat": -45.058918541912895, "lon": -136.58063192845987, "alt_km": 554.9846789767835, "timestamp": "2025-12-10T20:49:52.949535+00:00", "meta": {"OBJECT_NAME": "COSMOS 2251 DEB", "OBJECT_ID": "1993-036AUQ", "EPOCH": "2025-12-07T10:36:21.692736", "MEAN_MOTION": 15.06319673, "ECCENTRICITY": 0.00066034, "INCLINATION": 74.0121, "RA_OF_ASC_NODE": 33.7639, "ARG_OF_PERICENTER": 0.5644, "MEAN_ANOMALY": 13.1472, "EPHEMERIS_TYPE": 0, "CLASSIFICATION_TYPE": "U", "NORAD_CAT_ID": 35901, "ELEMENT_SET_NO": 999, "REV_AT_EPOCH": 86047, "BSTAR": 0.0047775116, "MEAN_MOTION_DOT": 0.0007096, "MEAN_MOTION_DDOT": 0}, "tle": {"line1": "1 35901U 93036AUQ 25341.44191774  .00070960  00000+0  47775-2 0  9994", "line2": "2 35901  74.0121  33.7639 0006603   0.5644  13.1472 15.06319673860474"}}, "geometry": {"type": "Point", "coordinates": [-136.58063192845987, -45.058918541912895]}}, {"type": "Feature", "properties": {"norad_id": 35902, "name": "COSMOS 2251 DEB", "group": "cosmos-2251-debris", "lat": -27.06753119150299, "lon": -130.4623052649747, "alt_km": 739.1580194133876, "timestamp": "2025-12-10T20:49:52.949545+00:00", "meta": {"OBJECT_NAME": "COSMOS 2251 DEB", "OBJECT_ID": "1993-036AUR", "EPOCH": "2025-12-10T09:10:56.598528", "MEAN_MOTION": 14.26883589, "ECCENTRICITY": 0.01019996, "INCLINATION": 73.9827, "RA_OF_ASC_NODE": 238.8593, "ARG_OF_PERICENTER": 354.0936, "MEAN_ANOMALY": 5.8999, "EPHEMERIS_TYPE": 0, "CLASSIFICATION_TYPE": "U", "NORAD_CAT_ID": 35902, "ELEMENT_SET_NO": 999, "REV_AT_EPOCH": 61096, "BSTAR": 0.0017323625, "MEAN_MOTION_DOT": 4.42e-05, "MEAN_MOTION_DDOT": 0}, "tle": {"line1": "1 35902U 93036AUR 25344.38259952  .00004420  00000+0  17324-2 0  9999", "line2": "2 35902  73.9827 238.8593 0101999 354.0936   5.8999 14.26883589610960"}}, "geometry": {"type": "Point", "coordinates": [-130.4623052649747, -27.06753119150299]}}, {"type": "Feature", "properties": {"norad_id": 35905, "name": "COSMOS 2251 DEB", "group": "cosmos-2251-debris", "lat": 20.093318024901457, "lon": 28.600756110391163, "alt_km": 615.0153822555894, "timestamp": "2025-12-10T20:49:52.949555+00:00", "meta": {"OBJECT_NAME": "COSMOS 2251 DEB", "OBJECT_ID": "1993-036AUU", "EPOCH": "2025-12-09T08:52:40.693152", "MEAN_MOTION": 14.98948103, "ECCENTRICITY": 0.0090867, "INCLINATION": 74.0312, "RA_OF_ASC_NODE": 217.6533, "ARG_OF_PERICENTER": 298.4996, "MEAN_ANOMALY": 60.7061, "EPHEMERIS_TYPE": 0, "CLASSIFICATION_TYPE": "U", "NORAD_CAT_ID": 35905, "ELEMENT_SET_NO": 999, "REV_AT_EPOCH": 88532, "BSTAR": 0.00069223157, "MEAN_MOTION_DOT": 9.099e-05, "MEAN_MOTION_DDOT": 0}, "tle": {"line1": "1 35905U 93036AUU 25343.36991543  .00009099  00000+0  69223-3 0  9991", "line2": "2 35905  74.0312 217.6533 0090867 298.4996  60.7061 14.98948103885328"}}, "geometry": {"type": "Point", "coordinates": [28.600756110391163, 20.093318024901457]}}, {"type": "Feature", "properties": {"norad_id": 35959, "name": "COSMOS 2251 DEB", "group": "cosmos-2251-debris", "lat": 7.7237496644476495, "lon": -42.283140103204076, "alt_km": 765.9985804495136, "timestamp": "2025-12-10T20:49:52.949565+00:00", "meta": {"OBJECT_NAME": "COSMOS 2251 DEB", "OBJECT_ID": "1993-036AUZ", "EPOCH": "2025-12-09T16:20:00.716640", "MEAN_MOTION": 14.34132745, "ECCENTRICITY": 0.00214338, "INCLINATION": 74.0323, "RA_OF_ASC_NODE": 317.6642, "ARG_OF_PERICENTER": 39.0649, "MEAN_ANOMALY": 321.2045, "EPHEMERIS_TYPE": 0, "CLASSIFICATION_TYPE": "U", "NORAD_CAT_ID": 35959, "ELEMENT_SET_NO": 999, "REV_AT_EPOCH": 84884, "BSTAR": 0.00022587593, "MEAN_MOTION_DOT": 6.08e-06, "MEAN_MOTION_DDOT": 0}, "tle": {"line1": "1 35959U 93036AUZ 25343.68056385  .00000608  00000+0  22588-3 0  9991", "line2": "2 35959  74.0323 317.6642 0021433  39.0649 321.2045 14.34132745848848"}}, "geometry": {"type": "Point", "coordinates": [-42.283140103204076, 7.7237496644476495]}}]}